[{"OBJECT_NAME":"FLOCK 4G-1","OBJECT_ID":"2025-009BK","EPOCH":"2026-03-09T18:13:41.778912","MEAN_MOTION":15.27421081,"ECCENTRICITY":0.00031801,"INCLINATION":97.4059,"RA_OF_ASC_NODE":151.3158,"ARG_OF_PERICENTER":323.1401,"MEAN_ANOMALY":36.9619,"EPHEMERIS_TYPE":0,"CLASSIFICATION_TYPE":"U","NORAD_CAT_ID":62666,"ELEMENT_SET_NO":999,"REV_AT_EPOCH":6372,"BSTAR":0.00050653644,"MEAN_MOTION_DOT":0.00013534,"MEAN_MOTION_DDOT":0},{"OBJECT_NAME":"STARLINK-35859","OBJECT_ID":"2025-303Y","EPOCH":"2026-03-09T01:34:32.725920","MEAN_MOTION":15.27586117,"ECCENTRICITY":0.00016597,"INCLINATION":43.0016,"RA_OF_ASC_NODE":313.8994,"ARG_OF_PERICENTER":262.5678,"MEAN_ANOMALY":97.4985,"EPHEMERIS_TYPE":0,"CLASSIFICATION_TYPE":"U","NORAD_CAT_ID":67185,"ELEMENT_SET_NO":999,"REV_AT_EPOCH":1264,"BSTAR":0.0013759151,"MEAN_MOTION_DOT":0.00037802,"MEAN_MOTION_DDOT":0}]
